NORAD_CAT_ID,OBJECT_NAME,OBJECT_TYPE,EPOCH,MEAN_MOTION,ECCENTRICITY,INCLINATION,RA_OF_ASC_NODE,ARG_OF_PERICENTER,MEAN_ANOMALY,BSTAR,MEAN_MOTION_DOT,MEAN_MOTION_DDOT,TLE_LINE0,TLE_LINE1,TLE_LINE2,SEMIMAJOR_AXIS,PERIOD,APOGEE,PERIGEE,DECAYED
53002.0,STARLINK-4121,PAYLOAD,2023-07-28 21:37:53,15.08855411,8.41e-05,53.2177,60.3318,100.5371,259.5716,-0.00019881,-3.452e-05,0.0,0 STARLINK-4121,1 53002U 22076S   23209.90130872 -.00003452  00000-0 -19881-3 0  9999,2 53002  53.2177  60.3318 0000841 100.5371 259.5716 15.08855411 59173,6917.833,95.437,540.28,539.116,0.0
53002.0,STARLINK-4121,PAYLOAD,2023-07-29 19:53:17,15.08848047,8.71e-05,53.2165,56.1686,102.2689,257.8401,0.00032953,4.962e-05,0.0,0 STARLINK-4121,1 53002U 22076S   23210.82867539  .00004962  00000-0  32953-3 0  9999,2 53002  53.2165  56.1686 0000871 102.2689 257.8401 15.08848047 59310,6917.856,95.437,540.323,539.118,0.0
53002.0,STARLINK-4121,PAYLOAD,2023-07-30 18:08:41,15.08842055,0.0001006,53.2176,52.0064,83.3974,276.7133,0.00010367,1.363e-05,0.0,0 STARLINK-4121,1 53002U 22076S   23211.75603754  .00001363  00000-0  10367-3 0  9996,2 53002  53.2176  52.0064 0001006  83.3974 276.7133 15.08842055 59454,6917.874,95.437,540.435,539.043,0.0
53002.0,STARLINK-4121,PAYLOAD,2023-07-31 19:34:51,15.08847416,9.73e-05,53.2167,47.2465,99.2958,260.8144,0.00014828,2.073e-05,0.0,0 STARLINK-4121,1 53002U 22076S   23212.81587506  .00002073  00000-0  14828-3 0  9995,2 53002  53.2167  47.2465 0000973  99.2958 260.8144 15.08847416 59615,6917.858,95.437,540.396,539.05,0.0
53002.0,STARLINK-4121,PAYLOAD,2023-08-01 17:50:15,15.08843371,9.36e-05,53.2166,43.0831,96.3247,263.7852,0.00012401,1.687e-05,0.0,0 STARLINK-4121,1 53002U 22076S   23213.74323669  .00001687  00000-0  12401-3 0  9991,2 53002  53.2166  43.0831 0000936  96.3247 263.7852 15.08843371 59752,6917.87,95.437,540.383,539.088,0.0
53002.0,STARLINK-4121,PAYLOAD,2023-08-02 22:27:11,15.0885324,8.64e-05,53.2177,37.7314,90.2408,269.8684,0.00016823,2.392e-05,0.0,0 STARLINK-4121,1 53002U 22076S   23214.93554778  .00002392  00000-0  16823-3 0  9996,2 53002  53.2177  37.7314 0000864  90.2408 269.8684 15.08853240 59938,6917.84,95.437,540.303,539.107,0.0
53002.0,STARLINK-4121,PAYLOAD,2023-08-03 17:31:49,15.08836988,9.15e-05,53.2168,34.1633,86.1012,274.0085,1.1928e-05,-9.8e-07,0.0,0 STARLINK-4121,1 53002U 22076S   23215.73043932 -.00000098  00000-0  11928-4 0  9994,2 53002  53.2168  34.1633 0000915  86.1012 274.0085 15.08836988 60053,6917.89,95.438,540.388,539.122,0.0
53002.0,STARLINK-4121,PAYLOAD,2023-08-04 18:58:00,15.08836961,0.0001092,53.2181,29.4068,75.6289,284.4825,1.2386e-05,-9.1e-07,0.0,0 STARLINK-4121,1 53002U 22076S   23216.79028330 -.00000091  00000-0  12386-4 0  9998,2 53002  53.2181  29.4068 0001092  75.6289 284.4825 15.08836961 60219,6917.89,95.438,540.51,538.999,0.0
53002.0,STARLINK-4121,PAYLOAD,2023-08-05 18:48:46,15.08861199,0.0001024,53.2175,24.9457,74.2284,285.8821,0.00057242,8.839e-05,0.0,0 STARLINK-4121,1 53002U 22076S   23217.78387599  .00008839  00000-0  57242-3 0  9999,2 53002  53.2175  24.9457 0001024  74.2284 285.8821 15.08861199 60367,6917.816,95.436,540.389,538.972,0.0
53002.0,STARLINK-4121,PAYLOAD,2023-08-06 04:21:06,15.08830584,8.88e-05,53.217,23.1613,96.0922,264.0171,-0.00065028,-0.00010619,0.0,0 STARLINK-4121,1 53002U 22076S   23218.18131948 -.00010619  00000-0 -65028-3 0  9991,2 53002  53.2170  23.1613 0000888  96.0922 264.0171 15.08830584 60423,6917.909,95.438,540.388,539.16,0.0
53002.0,STARLINK-4121,PAYLOAD,2023-08-07 10:33:27,15.08828939,7.55e-05,53.2169,17.5117,94.6401,265.4677,0.0010326,0.00016179,0.0,0 STARLINK-4121,1 53002U 22076S   23219.43990190  .00016179  00000-0  10326-2 0  9997,2 53002  53.2169  17.5117 0000755  94.6401 265.4677 15.08828939 60614,6917.914,95.438,540.302,539.257,0.0
53002.0,STARLINK-4121,PAYLOAD,2023-08-08 16:45:46,15.08866605,7.45e-05,53.217,11.8625,80.459,279.6487,0.00093896,0.00014698,0.0,0 STARLINK-4121,1 53002U 22076S   23220.69845304  .00014698  00000-0  93896-3 0  9991,2 53002  53.2170  11.8625 0000745  80.4590 279.6487 15.08866605 60807,6917.799,95.436,540.179,539.149,0.0
53002.0,STARLINK-4121,PAYLOAD,2023-08-09 10:15:00,15.08850964,5.58e-05,53.2169,8.5907,89.0887,271.0169,0.00014626,2.042e-05,0.0,0 STARLINK-4121,1 53002U 22076S   23221.42708905  .00002042  00000-0  14626-3 0  9992,2 53002  53.2169   8.5907 0000558  89.0887 271.0169 15.08850964 60913,6917.847,95.437,540.098,539.326,0.0
53002.0,STARLINK-4121,PAYLOAD,2023-08-10 10:05:47,15.08842018,6.93e-05,53.2175,4.1307,91.698,268.4091,0.00010028,1.309e-05,0.0,0 STARLINK-4121,1 53002U 22076S   23222.42068988  .00001309  00000-0  10028-3 0  9990,2 53002  53.2175   4.1307 0000693  91.6980 268.4091 15.08842018 61061,6917.874,95.437,540.219,539.26,0.0
53002.0,STARLINK-4121,PAYLOAD,2023-08-11 17:53:30,15.08846405,8.15e-05,53.2191,358.1849,94.7896,265.3189,0.00014403,2.006e-05,0.0,0 STARLINK-4121,1 53002U 22076S   23223.74548700  .00002006  00000-0  14403-3 0  9997,2 53002  53.2191 358.1849 0000815  94.7896 265.3189 15.08846405 61268,6917.861,95.437,540.29,539.162,0.0
53002.0,STARLINK-4121,PAYLOAD,2023-08-12 09:47:21,15.08836271,8.76e-05,53.2196,355.2112,97.1148,262.9944,5.8927e-06,-1.94e-06,0.0,0 STARLINK-4121,1 53002U 22076S   23224.40789143 -.00000194  00000-0  58927-5 0  9997,2 53002  53.2196 355.2112 0000876  97.1148 262.9944 15.08836271 61361,6917.892,95.438,540.363,539.151,0.0
53002.0,STARLINK-4121,PAYLOAD,2023-08-13 09:38:09,15.08832147,9.24e-05,53.2204,350.751,99.5554,260.5543,8.2617e-05,1.027e-05,0.0,0 STARLINK-4121,1 53002U 22076S   23225.40149951  .00001027  00000-0  82617-4 0  9992,2 53002  53.2204 350.7510 0000924  99.5554 260.5543 15.08832147 61518,6917.904,95.438,540.409,539.13,0.0
53002.0,STARLINK-4121,PAYLOAD,2023-08-13 15:59:41,15.08841422,8.63e-05,53.219,349.5606,73.0943,287.0143,4.1781e-05,3.77e-06,0.0,0 STARLINK-4121,1 53002U 22076S   23225.66645515  .00000377  00000-0  41781-4 0  9991,2 53002  53.2190 349.5606 0000863  73.0943 287.0143 15.08841422 61555,6917.876,95.437,540.338,539.144,0.0
53002.0,STARLINK-4121,PAYLOAD,2023-08-15 01:22:47,15.08830441,9.3e-05,53.219,343.3159,76.9835,283.1261,0.00040779,6.206e-05,0.0,0 STARLINK-4121,1 53002U 22076S   23227.05749418  .00006206  00000-0  40779-3 0  9995,2 53002  53.2190 343.3159 0000930  76.9835 283.1261 15.08830441 61767,6917.91,95.438,540.418,539.131,0.0
53002.0,STARLINK-4121,PAYLOAD,2023-08-15 10:55:05,15.08893979,7.58e-05,53.2189,341.5342,52.3704,307.7357,-0.00069548,-0.00011355,0.0,0 STARLINK-4121,1 53002U 22076S   23227.45492033 -.00011355  00000-0 -69548-3 0  9995,2 53002  53.2189 341.5342 0000758  52.3704 307.7357 15.08893979 61821,6917.715,95.434,540.105,539.056,0.0
53002.0,STARLINK-4121,PAYLOAD,2023-08-15 17:16:38,15.08841941,0.0001089,53.218,340.3437,44.6939,315.4141,0.00017552,2.507e-05,0.0,0 STARLINK-4121,1 53002U 22076S   23227.71989160  .00002507  00000-0  17552-3 0  9991,2 53002  53.2180 340.3437 0001089  44.6939 315.4141 15.08841941 61869,6917.874,95.437,540.493,538.986,0.0
53002.0,STARLINK-4121,PAYLOAD,2023-08-16 10:45:53,15.08814262,0.0001077,53.2159,337.0692,104.4407,255.6704,0.0004505,6.884e-05,0.0,0 STARLINK-4121,1 53002U 22076S   23228.44854115  .00006884  00000-0  45050-3 0  9999,2 53002  53.2159 337.0692 0001077 104.4407 255.6704 15.08814262 61971,6917.959,95.439,540.569,539.079,0.0
53002.0,STARLINK-4121,PAYLOAD,2023-08-16 12:21:16,15.08842851,0.0001225,53.2186,336.7762,74.2678,285.8449,1.5138e-05,-4.7e-07,0.0,0 STARLINK-4121,1 53002U 22076S   23228.51477296 -.00000047  00000-0  15138-4 0  9999,2 53002  53.2186 336.7762 0001225  74.2678 285.8449 15.08842851 61981,6917.872,95.437,540.584,538.889,0.0
53002.0,STARLINK-4121,PAYLOAD,2023-08-17 23:19:45,15.0883651,0.0001,53.2184,330.2326,90.4217,269.689,6.4455e-05,7.38e-06,0.0,0 STARLINK-4121,1 53002U 22076S   23229.97205341  .00000738  00000-0  64455-4 0  9992,2 53002  53.2184 330.2326 0001000  90.4217 269.6890 15.08836510 62205,6917.891,95.438,540.448,539.064,0.0
53002.0,STARLINK-4121,PAYLOAD,2023-08-18 10:27:29,15.08750002,0.0001068,53.2204,328.1518,138.9332,221.174,0.0011948,0.00018732,0.0,0 STARLINK-4121,1 53002U 22076S   23230.43576194  .00018732  00000-0  11948-2 0  9992,2 53002  53.2204 328.1518 0001068 138.9332 221.1740 15.08750002 62272,6918.155,95.443,540.759,539.282,0.0
53002.0,STARLINK-4121,PAYLOAD,2023-08-18 13:38:13,15.08836739,0.0001055,53.2202,327.558,101.1551,258.956,4.1802e-05,3.78e-06,0.0,0 STARLINK-4121,1 53002U 22076S   23230.56821532  .00000378  00000-0  41802-4 0  9996,2 53002  53.2202 327.5580 0001055 101.1551 258.9560 15.08836739 62295,6917.89,95.438,540.485,539.026,0.0
53002.0,STARLINK-4121,PAYLOAD,2023-08-20 11:44:25,15.08834169,8.29e-05,53.2194,318.9349,95.6236,264.4851,6.5069e-05,7.48e-06,0.0,0 STARLINK-4121,1 53002U 22076S   23232.48918171  .00000748  00000-0  65069-4 0  9997,2 53002  53.2194 318.9349 0000829  95.6236 264.4851 15.08834169 62589,6917.898,95.438,540.337,539.19,0.0
53002.0,STARLINK-4121,PAYLOAD,2023-08-21 11:35:12,15.08808116,0.0001242,53.2182,314.4729,82.4803,277.633,0.00056667,8.734e-05,0.0,0 STARLINK-4121,1 53002U 22076S   23233.48278429  .00008734  00000-0  56667-3 0  9999,2 53002  53.2182 314.4729 0001242  82.4803 277.6330 15.08808116 62731,6917.978,95.44,540.702,538.984,0.0
53002.0,STARLINK-4121,PAYLOAD,2023-08-22 05:04:26,15.08837642,0.0001159,53.2184,311.2017,79.4893,280.623,3.2812e-05,2.34e-06,0.0,0 STARLINK-4121,1 53002U 22076S   23234.21142309  .00000234  00000-0  32812-4 0  9992,2 53002  53.2184 311.2017 0001159  79.4893 280.6230 15.08837642 62841,6917.888,95.438,540.554,538.951,0.0
53002.0,STARLINK-4121,PAYLOAD,2023-08-23 11:16:46,15.08846459,0.0001209,53.2177,305.552,72.507,287.6054,3.3402e-05,2.44e-06,0.0,0 STARLINK-4121,1 53002U 22076S   23235.46997740  .00000244  00000-0  33402-4 0  9994,2 53002  53.2177 305.5520 0001209  72.5070 287.6054 15.08846459 63034,6917.861,95.437,540.562,538.889,0.0
